QIANFAN-73              
1 63159U 25046A   25223.21337263  .00000152  00000+0  21581-3 0  9999
2 63159  88.9864 332.7563 0016920 119.4992 240.7849 13.50960969 30736
QIANFAN-74              
1 63160U 25046B   25223.19692065  .00000172  00000+0  24831-3 0  9995
2 63160  88.9863 332.6465 0001964 105.6683 254.4685 13.50965843 30795
QIANFAN-75              
1 63161U 25046C   25223.25869287  .00000176  00000+0  25358-3 0  9994
2 63161  88.9864 332.8720 0018066 122.3201 237.9702 13.50962101 30673
QIANFAN-76              
1 63162U 25046D   25223.25442914  .00000176  00000+0  25318-3 0  9995
2 63162  88.9864 332.8536 0015627 122.6771 237.5890 13.50958477 30680
QIANFAN-77              
1 63163U 25046E   25223.19022058  .00000376  00000+0  26448-3 0  9999
2 63163  88.9861 331.8803 0016985 106.2029 254.1018 13.96012434 31217
QIANFAN-78              
1 63164U 25046F   25223.22162717  .00000180  00000+0  25992-3 0  9997
2 63164  88.9863 332.7223 0016975 124.9992 235.2755 13.50961722 30750
QIANFAN-79              
1 63165U 25046G   25223.25033216  .00000172  00000+0  24763-3 0  9998
2 63165  88.9867 332.8221 0016671 123.3729 236.9020 13.50963888 30712
QIANFAN-80              
1 63166U 25046H   25223.19283841  .00000176  00000+0  25356-3 0  9996
2 63166  88.9864 332.5383 0015621 127.2035 233.0544 13.50964008 30852
